LIZZIESAT-1 (LS-1)      
1 59132U 24043AL  26068.89230471  .00005784  00000+0  22329-3 0  9993
2 59132  97.5461 203.4772 0009923 229.9925 130.0443 15.26635711111780
STARLINK-35460          
1 66328U 25253K   26068.44339317  .00009939  00000+0  37033-3 0  9996
2 66328  43.0041 214.1724 0001444 270.1905  89.8781 15.27567867 20206
